STARLINK-36350          
1 67572U 26016M   26039.25002315 -.00002362  00000+0 -11589-4 0  9992
2 67572  97.2778  98.2151 0001478  74.4352 318.7451 15.80826189  3202
STARLINK-36588          
1 67573U 26016N   26039.25002315 -.00014308  00000+0 -74033-4 0  9999
2 67573  97.2825  98.2184 0001442  97.0783 304.4724 15.80828781  3364
STARLINK-36594          
1 67574U 26016P   26039.25002315 -.00028466  00000+0 -14827-3 0  9994
2 67574  97.2829  98.2203 0001121 106.9000 299.7274 15.80828712  3367
STARLINK-36400          
1 67575U 26016Q   26039.25002315  .00027470  00000+0  14369-3 0  9998
2 67575  97.2770  98.2228 0001547  91.7001 320.5808 15.80816945  3253
STARLINK-36591          
1 67576U 26016R   26039.25002315 -.00035062  00000+0 -18300-3 0  9996
2 67576  97.2824  98.2242 0001383  70.5009 347.6859 15.80820382  3314
STARLINK-36590          
1 67577U 26016S   26039.25002315 -.00077189  00000+0 -40516-3 0  9997
2 67577  97.2758  98.2256 0001482  93.9899 329.6012 15.80850255  3315
STARLINK-36613          
1 67578U 26016T   26039.25002315  .00031160  00000+0  16294-3 0  9991
2 67578  97.2802  98.2293 0001437  93.8221 336.3128 15.80802043  3310
STARLINK-36571          
1 67579U 26016U   26039.25002315  .00055350  00000+0  28802-3 0  9997
2 67579  97.2802  98.2337 0001723  96.0623 342.5163 15.80803997  3316
STARLINK-36612          
1 67580U 26016V   26039.25002315 -.00055977  00000+0 -29300-3 0  9990
2 67580  97.2802  98.2356 0001410  87.8387 357.0047 15.80843751  3311
STARLINK-36632          
1 67581U 26016W   26039.25002315 -.00050818  00000+0 -26573-3 0  9999
2 67581  97.2797  98.2431 0001412  78.2860  24.5600 15.80846537  3317
STARLINK-36609          
1 67582U 26016X   26039.25002315 -.01973358  00000+0 -12725-1 0  9996
2 67582  97.2769  98.2453 0001793  64.3759  43.5794 15.79270113  3310
STARLINK-36577          
1 67583U 26016Y   26039.25002315 -.00035738  00000+0 -18649-3 0  9990
2 67583  97.2795  98.2382 0001390  72.2532  20.9893 15.80828085  3319
